SENTINEL-6              
1 46984U 20086A   24134.48785030 -.00000037  00000+0  10638-3 0  9997
2 46984  66.0413 283.3389 0007772 270.6059  89.4065 12.80930926162383
